GONETS-M 19             
1 46488U 20068C   26168.55098041  .00000071  00000+0  43943-3 0  9994
2 46488  82.4962 346.8441 0014259  48.9461 311.2849 12.42892424259299
DEKART                  
1 46493U 20068H   26168.59732939  .00009788  00000+0  26959-3 0  9997
2 46493  97.8737 177.8967 0006982 284.5734  75.4734 15.37357759315834
NORBI                   
1 46494U 20068J   26168.60939213  .00017556  00000+0  33202-3 0  9995
2 46494  97.8618 184.6113 0004851 243.2669 116.8084 15.48467593316271
SALSAT                  
1 46495U 20068K   26168.53797512  .00006219  00000+0  21821-3 0  9990
2 46495  97.8847 171.6239 0008040 306.6544  53.3955 15.29803905315418
ICEYE-X6                
1 46497U 20068M   26168.59039213  .00002720  00000+0  19880-3 0  9990
2 46497  98.0976 162.2808 0008761  89.5888 270.6341 15.04527115313298
NETSAT-4                
1 46504U 20068U   26167.99517375  .00014852  00000+0  32924-3 0  9995
2 46504  97.8600 176.2206 0003869 339.1494  20.9595 15.43860202315745
NETSAT-3                
1 46505U 20068V   26168.52021461  .00014868  00000+0  34277-3 0  9992
2 46505  97.8649 175.0036 0004166   0.5703 359.5547 15.42688001315731
NETSAT-1                
1 46506U 20068W   26168.52664458  .00009573  00000+0  28756-3 0  9994
2 46506  97.8743 169.3378 0004996  31.5449 328.6092 15.34649788315354
NETSAT-2                
1 46507U 20068X   26168.48856875  .00018610  00000+0  38293-3 0  9995
2 46507  97.8608 176.6489 0003412  26.1763 333.9657 15.46009035315781
TIANQI-6                
1 46810U 20076D   26168.07185254  .00003032  00000+0  19908-3 0  9996
2 46810  34.9999  49.1720 0009980 173.8601 186.2232 15.07182646308565
KSM1-C                  
1 46906U 20081B   26168.61760664  .00008209  00000+0  30823-3 0  9992
2 46906  36.8961  56.2841 0003209 251.1785 108.8616 15.26748136309239
KSM1-D                  
1 46907U 20081C   26168.16148101  .00006517  00000+0  26088-3 0  9997
2 46907  36.8966  68.1104 0005174 264.5164  95.4994 15.24720175309096
KSM1-A                  
1 46912U 20081H   26168.62104546  .00007805  00000+0  30023-3 0  9994
2 46912  36.8975  58.6600 0004527 305.2608  54.7717 15.25966523309242
R2                      
1 46913U 20081J   26167.39889515  .00006097  00000+0  23914-3 0  9997
2 46913  36.8988  66.1712 0009207 277.8329  82.1375 15.25417890311863
KSM1-B                  
1 46914U 20081K   26168.16493275  .00006176  00000+0  24897-3 0  9997
2 46914  36.9022  68.6938 0006922 279.9699  80.0269 15.24509148312187
GONETS-M 20             
1 47227U 20091A   26168.56951852  .00000004  00000+0 -45722-4 0  9996
2 47227  82.5049 302.1976 0021198 177.0382 183.0827 12.42893349251124
GONETS-M 21             
1 47228U 20091B   26168.54338218 -.00000057  00000+0 -48016-3 0  9997
2 47228  82.4974 300.9207 0014769 190.0429 170.0358 12.42886264251119
GONETS-M 22             
1 47229U 20091C   26168.59697678  .00000003  00000+0 -53421-4 0  9998
2 47229  82.5032 301.7862 0022149 172.4180 187.7239 12.42892603251073
CUBEL                   
1 47448U 21006AM  26168.09694520  .00015605  00000+0  37696-3 0  9994
2 47448  97.2328 218.6814 0007237 161.8468 198.3038 15.41232009299743
ARKTIKA-M 1             
1 47719U 21016A   26168.49069990 -.00000210  00000+0  00000+0 0  9999
2 47719  63.2922  57.5948 7288528 269.9420  14.6012  2.00622504 38796
STARLINK-2342           
1 47883U 21021Z   26168.66668981  .00086564  00000+0  43095-3 0  9991
2 47883  53.1544 145.6723 0001532 114.8001 161.0030 15.81211588  5903
GRUS-1B                 
1 47934U 21022C   26168.64432704  .00000522  00000+0  47873-4 0  9998
2 47934  97.5409  51.8297 0015404 326.4613  33.5633 14.98887266285966
UNISAT-7                
1 47945U 21022P   26168.54919118  .00011741  00000+0  29112-3 0  9998
2 47945  97.3891  73.4775 0011096  77.5487 282.7000 15.40475844289916
GLOBAL-9                
1 47971U 21023G   26167.93046645  .00017324  00000+0  34643-3 0  9994
2 47971  44.9809 251.9707 0004772 316.5979  43.4534 15.46602642294908
AII-BRAVO               
1 48270U 21034C   26168.02131827  .00003490  00000+0  26041-3 0  9999
2 48270  97.5627 222.9354 0004164 260.0729 100.0026 15.03482465279596
TYVAK-182A              
1 48271U 21034D   26168.33024822  .00003469  00000+0  24109-3 0  9999
2 48271  97.5713 227.2452 0005061 342.9773  17.1283 15.06165048279856
CSS (TIANHE)            
1 48274U 21035A   26168.42493671  .00019059  00000+0  22524-3 0  9996
2 48274  41.4698 320.5549 0007448  79.0954 281.0722 15.60819135293201
TYVAK-0130              
1 48606U 21041BF  26167.84900801  .00004691  00000+0  18434-3 0  9996
2 48606  52.9950  27.6578 0010370 160.7076 199.4316 15.27558222280337
