OBJECT_NAME,OBJECT_ID,EPOCH,MEAN_MOTION,ECCENTRICITY,INCLINATION,RA_OF_ASC_NODE,ARG_OF_PERICENTER,MEAN_ANOMALY,EPHEMERIS_TYPE,CLASSIFICATION_TYPE,NORAD_CAT_ID,ELEMENT_SET_NO,REV_AT_EPOCH,BSTAR,MEAN_MOTION_DOT,MEAN_MOTION_DDOT
GONETS-M 19,2020-068C,2026-06-17T13:13:24.707424,12.42892424,.0014259,82.4962,346.8441,48.9461,311.2849,0,U,46488,999,25929,.43943276E-3,.71E-6,0
DEKART,2020-068H,2026-06-17T14:20:09.259296,15.37357759,.00069822,97.8737,177.8967,284.5734,75.4734,0,U,46493,999,31583,.26958849E-3,.9788E-4,0
NORBI,2020-068J,2026-06-17T14:37:31.480032,15.48467593,.00048511,97.8618,184.6113,243.2669,116.8084,0,U,46494,999,31627,.33202421E-3,.17556E-3,0
SALSAT,2020-068K,2026-06-17T12:54:41.050368,15.29803905,.00080404,97.8847,171.6239,306.6544,53.3955,0,U,46495,999,31541,.21820696E-3,.6219E-4,0
ICEYE-X6,2020-068M,2026-06-17T14:10:09.880032,15.04527115,.00087614,98.0976,162.2808,89.5888,270.6341,0,U,46497,999,31329,.19880414E-3,.272E-4,0
NETSAT-4,2020-068U,2026-06-16T23:53:03.012000,15.43860202,.00038693,97.8600,176.2206,339.1494,20.9595,0,U,46504,999,31574,.32923971E-3,.14852E-3,0
NETSAT-3,2020-068V,2026-06-17T12:29:06.542304,15.42688001,.0004166,97.8649,175.0036,0.5703,359.5547,0,U,46505,999,31573,.34276784E-3,.14868E-3,0
NETSAT-1,2020-068W,2026-06-17T12:38:22.091712,15.34649788,.00049964,97.8743,169.3378,31.5449,328.6092,0,U,46506,999,31535,.28756223E-3,.9573E-4,0
NETSAT-2,2020-068X,2026-06-17T11:43:32.340000,15.46009035,.00034123,97.8608,176.6489,26.1763,333.9657,0,U,46507,999,31578,.38293481E-3,.1861E-3,0
TIANQI-6,2020-076D,2026-06-17T01:43:28.059456,15.07182646,.000998,34.9999,49.1720,173.8601,186.2232,0,U,46810,999,30856,.1990833E-3,.3032E-4,0
KSM1-C,2020-081B,2026-06-17T14:49:21.213696,15.26748136,.00032093,36.8961,56.2841,251.1785,108.8616,0,U,46906,999,30923,.3082313E-3,.8209E-4,0
KSM1-D,2020-081C,2026-06-17T03:52:31.959264,15.24720175,.00051741,36.8966,68.1104,264.5164,95.4994,0,U,46907,999,30909,.26088309E-3,.6517E-4,0
KSM1-A,2020-081H,2026-06-17T14:54:18.327744,15.25966523,.0004527,36.8975,58.6600,305.2608,54.7717,0,U,46912,999,30924,.30022695E-3,.7805E-4,0
R2,2020-081J,2026-06-16T09:34:24.540960,15.25417890,.00092076,36.8988,66.1712,277.8329,82.1375,0,U,46913,999,31186,.23914112E-3,.6097E-4,0
KSM1-B,2020-081K,2026-06-17T03:57:30.189600,15.24509148,.00069225,36.9022,68.6938,279.9699,80.0269,0,U,46914,999,31218,.24896945E-3,.6176E-4,0
GONETS-M 20,2020-091A,2026-06-17T13:40:06.400128,12.42893349,.00211987,82.5049,302.1976,177.0382,183.0827,0,U,47227,999,25112,-.45721963E-4,.4E-7,0
GONETS-M 21,2020-091B,2026-06-17T13:02:28.220352,12.42886264,.00147691,82.4974,300.9207,190.0429,170.0358,0,U,47228,999,25111,-.48015902E-3,-.57E-6,0
GONETS-M 22,2020-091C,2026-06-17T14:19:38.793792,12.42892603,.00221498,82.5032,301.7862,172.4180,187.7239,0,U,47229,999,25107,-.53421118E-4,.3E-7,0
CUBEL,2021-006AM,2026-06-17T02:19:36.065280,15.41232009,.00072377,97.2328,218.6814,161.8468,198.3038,0,U,47448,999,29974,.37695785E-3,.15605E-3,0
ARKTIKA-M 1,2021-016A,2026-06-17T11:46:36.471360,2.00622504,.72885287,63.2922,57.5948,269.9420,14.6012,0,U,47719,999,3879,0,-.21E-5,0
STARLINK-2342,2021-021Z,2026-06-17T16:00:01.999584,15.81211588,.00015325,53.1544,145.6723,114.8001,161.0030,0,U,47883,999,590,.43094797E-3,.86564E-3,0
GRUS-1B,2021-022C,2026-06-17T15:27:49.856256,14.98887266,.00154046,97.5409,51.8297,326.4613,33.5633,0,U,47934,999,28596,.4787314E-4,.522E-5,0
UNISAT-7,2021-022P,2026-06-17T13:10:50.117952,15.40475844,.0011096,97.3891,73.4775,77.5487,282.7000,0,U,47945,999,28991,.29112174E-3,.11741E-3,0
GLOBAL-9,2021-023G,2026-06-16T22:19:52.301280,15.46602642,.00047727,44.9809,251.9707,316.5979,43.4534,0,U,47971,999,29490,.34642948E-3,.17324E-3,0
AII-BRAVO,2021-034C,2026-06-17T00:30:41.898528,15.03482465,.0004164,97.5627,222.9354,260.0729,100.0026,0,U,48270,999,27959,.26041191E-3,.349E-4,0
TYVAK-182A,2021-034D,2026-06-17T07:55:33.446208,15.06165048,.00050617,97.5713,227.2452,342.9773,17.1283,0,U,48271,999,27985,.24109315E-3,.3469E-4,0
CSS (TIANHE),2021-035A,2026-06-17T10:11:54.531744,15.60819135,.00074482,41.4698,320.5549,79.0954,281.0722,0,U,48274,999,29320,.22523707E-3,.19059E-3,0
TYVAK-0130,2021-041BF,2026-06-16T20:22:34.292064,15.27558222,.00103708,52.9950,27.6578,160.7076,199.4316,0,U,48606,999,28033,.18434032E-3,.4691E-4,0
